{"type": "FeatureCollection", "name": "effis.nrt.ba.poly", "features": [{"type": "Feature", "properties": {}, "geometry": {"type": "Polygon", "coordinates": [[[-0.252, 45.112], [-0.2566194, 45.1150866], [-0.2561814, 45.121235], [-0.2585355, 45.1224645], [-0.26, 45.126], [-0.2585355, 45.1295355], [-0.2530866, 45.1306194], [-0.2477881, 45.1251648], [-0.2478094, 45.1290234], [-0.2433234, 45.1332594], [-0.2394966, 45.1332594], [-0.2367857, 45.1305288], [-0.23137, 45.13346], [-0.2278345, 45.1319955], [-0.22637, 45.12846], [-0.2280584, 45.1247748], [-0.22658, 45.12123], [-0.2280445, 45.1176945], [-0.2315466, 45.1151306], [-0.2358799, 45.1153393], [-0.24, 45.113], [-0.2470719, 45.1166384], [-0.2484645, 45.1134645], [-0.252, 45.112]]]}}, {"type": "Feature", "properties": {}, "geometry": {"type": "Polygon", "coordinates": [[[-0.3293945, 44.1939545], [-0.33293, 44.19249], [-0.3364655, 44.1939545], [-0.34026, 44.20214], [-0.3371734, 44.2067594], [-0.3325222, 44.2062086], [-0.32808, 44.20903], [-0.3245445, 44.2075655], [-0.32116, 44.20142], [-0.3226245, 44.1978845], [-0.3280674, 44.1967994], [-0.3293945, 44.1939545]]]}}, {"type": "Feature", "properties": {}, "geometry": {"type": "Polygon", "coordinates": [[[-0.31783, 45.12005], [-0.3224494, 45.1231366], [-0.3213655, 45.1285855], [-0.3172156, 45.1299278], [-0.3157655, 45.1335355], [-0.3107134, 45.1366594], [-0.3052645, 45.1355755], [-0.30251, 45.12895], [-0.3050845, 45.1215645], [-0.30862, 45.1201], [-0.3120984, 45.1215263], [-0.31783, 45.12005]]]}}, {"type": "Feature", "properties": {}, "geometry": {"type": "Polygon", "coordinates": [[[-0.4290866, 44.2301806], [-0.4345355, 44.2312645], [-0.4380194, 44.2364866], [-0.4370598, 44.2462255], [-0.4393094, 44.2486266], [-0.4393094, 44.2524534], [-0.43469, 44.25554], [-0.4152666, 44.2571294], [-0.4125606, 44.2544234], [-0.4117706, 44.2469766], [-0.4165778, 44.2439274], [-0.4179045, 44.2410845], [-0.4216098, 44.2396538], [-0.4202, 44.2362], [-0.4216645, 44.2326645], [-0.4290866, 44.2301806]]]}}, {"type": "Feature", "properties": {}, "geometry": {"type": "Polygon", "coordinates": [[[-0.4100195, 44.2406855], [-0.4154684, 44.2396016], [-0.4228234, 44.2465076], [-0.4219674, 44.2538474], [-0.4192614, 44.2565534], [-0.4154346, 44.2565534], [-0.4134413, 44.2549141], [-0.409091, 44.257598], [-0.4044716, 44.2545114], [-0.4044716, 44.2506846], [-0.4077242, 44.2478699], [-0.4100195, 44.2406855]]]}}, {"type": "Feature", "properties": {}, "geometry": {"type": "Polygon", "coordinates": [[[-0.3740366, 45.1351806], [-0.3778634, 45.1351806], [-0.3814622, 45.140474], [-0.3848534, 45.1405606], [-0.3875594, 45.1432666], [-0.3849294, 45.1539634], [-0.3822234, 45.1566694], [-0.3767745, 45.1555855], [-0.3715706, 45.1494934], [-0.3726383, 45.1434851], [-0.37095, 45.1398], [-0.3740366, 45.1351806]]]}}, {"type": "Feature", "properties": {}, "geometry": {"type": "Polygon", "coordinates": [[[-0.3850866, 44.2063806], [-0.3889134, 44.2063806], [-0.3916194, 44.2090866], [-0.39261, 44.21364], [-0.3914411, 44.2167332], [-0.394, 44.221], [-0.3909134, 44.2256194], [-0.3870866, 44.2256194], [-0.3826093, 44.2212511], [-0.3781745, 44.2199655], [-0.3731806, 44.2124334], [-0.3731806, 44.2086066], [-0.3758866, 44.2059006], [-0.3797134, 44.2059006], [-0.3816658, 44.2074788], [-0.3850866, 44.2063806]]]}}, {"type": "Feature", "properties": {}, "geometry": {"type": "Polygon", "coordinates": [[[-0.3877966, 44.2059806], [-0.3994355, 44.2080645], [-0.4009, 44.2116], [-0.3994355, 44.2151355], [-0.3959, 44.2166], [-0.3880965, 44.2152791], [-0.38512, 44.21637], [-0.3798345, 44.2146055], [-0.37837, 44.21107], [-0.3798345, 44.2075345], [-0.3877966, 44.2059806]]]}}, {"type": "Feature", "properties": {}, "geometry": {"type": "Polygon", "coordinates": [[[-0.4351634, 44.2227306], [-0.4381547, 44.2268708], [-0.44155, 44.2255], [-0.4450855, 44.2269645], [-0.4461694, 44.2324134], [-0.44155, 44.2355], [-0.4380145, 44.2340355], [-0.4366453, 44.2309792], [-0.4346635, 44.2320688], [-0.43643, 44.24527], [-0.4324555, 44.2556355], [-0.4275234, 44.2592194], [-0.4148966, 44.2596394], [-0.4121906, 44.2569334], [-0.41114, 44.25083], [-0.4130961, 44.246966], [-0.4129206, 44.2428766], [-0.4156266, 44.2401706], [-0.4205647, 44.2409131], [-0.41911, 44.23317], [-0.4205745, 44.2296345], [-0.4283657, 44.2279317], [-0.4297145, 44.2238145], [-0.4351634, 44.2227306]]]}}, {"type": "Feature", "properties": {}, "geometry": {"type": "Polygon", "coordinates": [[[-0.41811, 44.19984], [-0.4286994, 44.2054066], [-0.43185, 44.21783], [-0.4287634, 44.2224494], [-0.4170527, 44.2240564], [-0.4148739, 44.2264682], [-0.4189994, 44.2294566], [-0.4179155, 44.2349055], [-0.41438, 44.23637], [-0.4106518, 44.2346171], [-0.39938, 44.23715], [-0.3891145, 44.2327055], [-0.38765, 44.22917], [-0.3898845, 44.2203345], [-0.3971965, 44.2162072], [-0.4096845, 44.2021345], [-0.41811, 44.19984]], [[-0.4147787, 44.2103599], [-0.4142758, 44.210545], [-0.4149984, 44.2106888], [-0.4147787, 44.2103599]]]}}, {"type": "Feature", "properties": {}, "geometry": {"type": "Polygon", "coordinates": [[[-0.8721845, 44.9098745], [-0.87572, 44.90841], [-0.8792555, 44.9098745], [-0.883, 44.92005], [-0.8815355, 44.9235855], [-0.8768488, 44.924821], [-0.8754955, 44.9289155], [-0.87196, 44.93038], [-0.8684245, 44.9289155], [-0.86696, 44.92538], [-0.8684245, 44.9218445], [-0.8731112, 44.920609], [-0.87072, 44.91341], [-0.8721845, 44.9098745]]]}}, {"type": "Feature", "properties": {}, "geometry": {"type": "Polygon", "coordinates": [[[-0.9102645, 44.9477945], [-0.9138, 44.94633], [-0.9173355, 44.9477945], [-0.918244, 44.9535059], [-0.9213934, 44.9539706], [-0.9240994, 44.9566766], [-0.9236928, 44.9611119], [-0.9272507, 44.9613625], [-0.9329566, 44.9526106], [-0.9384055, 44.9536945], [-0.9394894, 44.9591434], [-0.9328555, 44.9705455], [-0.92932, 44.97201], [-0.9231966, 44.9704494], [-0.9204906, 44.9677434], [-0.9208972, 44.9633081], [-0.9117245, 44.9609455], [-0.9088, 44.95133], [-0.9102645, 44.9477945]]]}}, {"type": "Feature", "properties": {}, "geometry": {"type": "Polygon", "coordinates": [[[-1.1639634, 44.3584406], [-1.176514, 44.3717208], [-1.1804555, 44.3739345], [-1.18192, 44.37747], [-1.1804555, 44.3810055], [-1.1756134, 44.3842894], [-1.1670019, 44.3844026], [-1.1652432, 44.3859558], [-1.1641455, 44.3913355], [-1.1591912, 44.3925178], [-1.1632194, 44.3964566], [-1.1632194, 44.4002834], [-1.1605134, 44.4029894], [-1.1564166, 44.4035905], [-1.1612294, 44.4070266], [-1.1614186, 44.4198531], [-1.16612, 44.41813], [-1.1696555, 44.4195945], [-1.17112, 44.42313], [-1.1696555, 44.4266655], [-1.16612, 44.42813], [-1.1635968, 44.427342], [-1.1470934, 44.4427794], [-1.1390886, 44.4434368], [-1.1324934, 44.4492594], [-1.121246, 44.4496132], [-1.1211194, 44.4528034], [-1.1184134, 44.4555094], [-1.1091289, 44.4549493], [-1.1077955, 44.4578255], [-1.10426, 44.45929], [-1.0973045, 44.4565955], [-1.0959479, 44.4525177], [-1.0914906, 44.4494634], [-1.0920906, 44.4401566], [-1.0976066, 44.4335706], [-1.1022959, 44.4341469], [-1.104662, 44.4326139], [-1.105884, 44.4284499], [-1.1049782, 44.4227657], [-1.0981245, 44.4204926], [-1.0968555, 44.4230455], [-1.09332, 44.42451], [-1.0897845, 44.4230455], [-1.08832, 44.41951], [-1.0897845, 44.4159745], [-1.0941222, 44.4146696], [-1.09035, 44.40898], [-1.0918145, 44.4054445], [-1.0969603, 44.4032181], [-1.09509, 44.39764], [-1.0973261, 44.3898999], [-1.0945851, 44.3897748], [-1.0891634, 44.3944294], [-1.08419, 44.39538], [-1.0717245, 44.3930855], [-1.06596, 44.38482], [-1.0680697, 44.3786003], [-1.06669, 44.37444], [-1.0691845, 44.3676545], [-1.07849, 44.3637], [-1.0846322, 44.3647349], [-1.08903, 44.36198], [-1.0967932, 44.3638555], [-1.11025, 44.36265], [-1.1159074, 44.3655616], [-1.12363, 44.3603], [-1.1282494, 44.3633866], [-1.12876, 44.3680094], [-1.1381761, 44.3650438], [-1.1435666, 44.3593306], [-1.15358, 44.35751], [-1.1579541, 44.3602295], [-1.1601366, 44.3584406], [-1.1639634, 44.3584406]]]}}, {"type": "Feature", "properties": {}, "geometry": {"type": "MultiPolygon", "coordinates": [[[[-1.2185934, 44.7691106], [-1.2296034, 44.7782293], [-1.2382634, 44.7789606], [-1.2438655, 44.7840945], [-1.24575, 44.78952], [-1.2446175, 44.7925588], [-1.2459194, 44.7981534], [-1.2384134, 44.8047694], [-1.2339493, 44.8043436], [-1.2320855, 44.8083155], [-1.2258134, 44.8125794], [-1.2227657, 44.8127344], [-1.2225394, 44.8154234], [-1.2198334, 44.8181294], [-1.2144062, 44.81706], [-1.2070934, 44.8203694], [-1.2030312, 44.8202122], [-1.1995034, 44.8247194], [-1.1935334, 44.8262294], [-1.1816748, 44.8263097], [-1.1816794, 44.8301434], [-1.1789734, 44.8328494], [-1.1681287, 44.8337914], [-1.1639308, 44.8408658], [-1.172131, 44.8477178], [-1.18004, 44.84748], [-1.1835755, 44.8489445], [-1.18504, 44.85248], [-1.182779, 44.8565478], [-1.1877894, 44.8595566], [-1.1877894, 44.8633834], [-1.1823955, 44.8704843], [-1.18498, 44.87731], [-1.1835155, 44.8808455], [-1.1762434, 44.8832261], [-1.1746655, 44.8859055], [-1.17022, 44.88748], [-1.1651318, 44.8860648], [-1.16167, 44.88748], [-1.1553463, 44.8866369], [-1.15107, 44.88921], [-1.1458334, 44.8852221], [-1.1415648, 44.8848001], [-1.1408094, 44.8905434], [-1.1347567, 44.8959058], [-1.13608, 44.89923], [-1.1352394, 44.9032034], [-1.132895, 44.9056678], [-1.1339294, 44.9111534], [-1.1311448, 44.913875], [-1.1338248, 44.9169358], [-1.1365366, 44.9142006], [-1.1403634, 44.9142006], [-1.1430694, 44.9169066], [-1.1430694, 44.9207334], [-1.13845, 44.92382], [-1.1337452, 44.9203042], [-1.12912, 44.92342], [-1.1251724, 44.9213388], [-1.1228421, 44.925728], [-1.123594, 44.9270816], [-1.12817, 44.92406], [-1.1393534, 44.9248406], [-1.1420594, 44.9275466], [-1.1420594, 44.9313734], [-1.137361, 44.9344443], [-1.1359255, 44.9381255], [-1.13239, 44.93959], [-1.1288545, 44.9381255], [-1.1275211, 44.9339309], [-1.123486, 44.9306484], [-1.1187935, 44.9336468], [-1.1176094, 44.9463334], [-1.112861, 44.9493943], [-1.1114255, 44.9530755], [-1.1077735, 44.9545168], [-1.1069794, 44.9618734], [-1.1021915, 44.9649265], [-1.1060794, 44.9686866], [-1.1049955, 44.9741355], [-1.0966131, 44.9753548], [-1.0951755, 44.9790255], [-1.09164, 44.98049], [-1.0869429, 44.977013], [-1.0865194, 44.9822934], [-1.081796, 44.9853593], [-1.0803555, 44.9890155], [-1.07682, 44.99048], [-1.0673952, 44.9900152], [-1.0619834, 44.9985494], [-1.04153, 44.99816], [-1.0379945, 44.9966955], [-1.03653, 44.99316], [-1.0379945, 44.9896245], [-1.0436583, 44.9886842], [-1.0446028, 44.9864858], [-1.0440903, 44.9835248], [-1.0401506, 44.9805734], [-1.0401506, 44.9767466], [-1.0448719, 44.9736803], [-1.0463145, 44.9700345], [-1.04985, 44.96857], [-1.0533855, 44.9700345], [-1.0547204, 44.9742214], [-1.0587828, 44.9743245], [-1.05457, 44.96869], [-1.0560345, 44.9651545], [-1.0597032, 44.9637165], [-1.060352, 44.9571741], [-1.0516465, 44.9561261], [-1.0510094, 44.9610534], [-1.0483034, 44.9637594], [-1.036193, 44.9649475], [-1.0348155, 44.9680455], [-1.0304895, 44.9693528], [-1.0252234, 44.9735994], [-1.0140469, 44.9734327], [-1.0110234, 44.9783694], [-1.00382, 44.97944], [-0.9991736, 44.9762177], [-0.99064, 44.9782], [-0.9851366, 44.9776794], [-0.9824306, 44.9749734], [-0.9815037, 44.9712371], [-0.9786134, 44.9748694], [-0.9747866, 44.9748694], [-0.9692945, 44.9707655], [-0.96598, 44.96317], [-0.9674445, 44.9596345], [-0.973487, 44.9579217], [-0.9736206, 44.9547666], [-0.9778656, 44.9517545], [-0.9784628, 44.9479149], [-0.9725349, 44.9453172], [-0.9741, 44.94892], [-0.9726355, 44.9524555], [-0.9691, 44.95392], [-0.9655645, 44.9524555], [-0.9644806, 44.9470066], [-0.9689351, 44.9439528], [-0.9643206, 44.9402934], [-0.9649501, 44.9355245], [-0.96285, 44.92986], [-0.9659366, 44.9252406], [-0.9752963, 44.925282], [-0.9784184, 44.9217965], [-0.9777503, 44.9207967], [-0.9650066, 44.9210294], [-0.9619685, 44.9166536], [-0.9572445, 44.9154255], [-0.95578, 44.91189], [-0.9564189, 44.9089637], [-0.9491837, 44.9118002], [-0.9476755, 44.9149355], [-0.9435993, 44.9162925], [-0.9408434, 44.9192494], [-0.93601, 44.92016], [-0.929457, 44.9174038], [-0.9266934, 44.9203994], [-0.9228666, 44.9203994], [-0.9201606, 44.9176934], [-0.9201152, 44.9140947], [-0.9169806, 44.9113034], [-0.9167589, 44.9085911], [-0.9117766, 44.9083694], [-0.9090706, 44.9056634], [-0.9090706, 44.9018366], [-0.9121871, 44.8988923], [-0.9092506, 44.8950934], [-0.9093109, 44.8911764], [-0.9059945, 44.8897555], [-0.9046172, 44.8857815], [-0.8935434, 44.8914994], [-0.8860356, 44.8911511], [-0.8820155, 44.9016155], [-0.87455, 44.90399], [-0.8643145, 44.8996055], [-0.85881, 44.89167], [-0.8615445, 44.8847345], [-0.86508, 44.88327], [-0.8702789, 44.8843041], [-0.8703106, 44.8806366], [-0.8730166, 44.8779306], [-0.8825544, 44.8800734], [-0.8833306, 44.8739066], [-0.8871666, 44.8704906], [-0.8909934, 44.8704906], [-0.8932707, 44.872555], [-0.89769, 44.87121], [-0.9060341, 44.8735778], [-0.906769, 44.8691684], [-0.8919466, 44.8674294], [-0.8892406, 44.8647234], [-0.8892406, 44.8608966], [-0.8941445, 44.8490745], [-0.8995934, 44.8479906], [-0.9034007, 44.8522847], [-0.912, 44.85127], [-0.9164212, 44.85406], [-0.9242383, 44.8526402], [-0.9270166, 44.8495706], [-0.9347604, 44.8485379], [-0.9334437, 44.8470813], [-0.9289666, 44.8467994], [-0.9245706, 44.8422534], [-0.92332, 44.83689], [-0.9248206, 44.8319566], [-0.9301798, 44.8285995], [-0.9332066, 44.8242806], [-0.9484757, 44.8224483], [-0.9514466, 44.8184106], [-0.9561458, 44.8189935], [-0.95962, 44.81757], [-0.9642394, 44.8206566], [-0.96525, 44.82706], [-0.9637855, 44.8305955], [-0.9585514, 44.8317221], [-0.9544514, 44.8349563], [-0.9561246, 44.8405806], [-0.9605471, 44.8426852], [-0.9692666, 44.8360506], [-0.9806064, 44.8366262], [-0.9853316, 44.8355908], [-0.9878266, 44.8332006], [-0.9916534, 44.8332006], [-0.9943594, 44.8359066], [-0.994179, 44.8420174], [-0.9991534, 44.8412506], [-1.0018594, 44.8439566], [-1.0013408, 44.8485596], [-1.0054094, 44.8515366], [-1.0055353, 44.8562898], [-1.0091061, 44.8535217], [-1.0096145, 44.8511164], [-1.00761, 44.84722], [-1.0106966, 44.8426006], [-1.0188183, 44.8438206], [-1.0203045, 44.8411745], [-1.02384, 44.83971], [-1.0273755, 44.8411745], [-1.028709, 44.8453686], [-1.0326121, 44.8457771], [-1.03424, 44.8444887], [-1.0313645, 44.8431555], [-1.0302489, 44.837866], [-1.0265645, 44.8356255], [-1.02252, 44.82846], [-1.0239845, 44.8249245], [-1.0300455, 44.8214628], [-1.0314278, 44.8169255], [-1.0296406, 44.8148334], [-1.0296406, 44.8110066], [-1.0323466, 44.8083006], [-1.0361734, 44.8083006], [-1.0388794, 44.8110066], [-1.0382423, 44.8157869], [-1.0404931, 44.8154003], [-1.0406906, 44.8125666], [-1.0455866, 44.8060306], [-1.0494134, 44.8060306], [-1.0532353, 44.8100995], [-1.0559015, 44.8091415], [-1.0569098, 44.8053005], [-1.0508866, 44.8047894], [-1.0481806, 44.8020834], [-1.0481806, 44.7982566], [-1.0508866, 44.7955506], [-1.0593234, 44.7957806], [-1.0620294, 44.7984866], [-1.061375, 44.8032927], [-1.0651673, 44.8033231], [-1.06215, 44.79875], [-1.0648962, 44.794358], [-1.0629406, 44.7921534], [-1.06301, 44.78494], [-1.0644745, 44.7814045], [-1.0682122, 44.7791952], [-1.0654045, 44.7778755], [-1.0640361, 44.7748233], [-1.0616042, 44.7745177], [-1.0588334, 44.7775494], [-1.05401, 44.77898], [-1.0498005, 44.7765069], [-1.04515, 44.77975], [-1.0405306, 44.7766634], [-1.0405551, 44.7727999], [-1.0354509, 44.7734529], [-1.03073, 44.77705], [-1.0271945, 44.7755855], [-1.0259892, 44.7707467], [-1.0227205, 44.7699107], [-1.0194034, 44.7745494], [-1.0103666, 44.7733294], [-1.0076606, 44.7706234], [-1.0070224, 44.7659999], [-1.004227, 44.7663082], [-1.0012534, 44.7703594], [-0.9981158, 44.7704965], [-0.9945734, 44.7732694], [-0.9906507, 44.7732054], [-0.9884195, 44.7758179], [-0.9883131, 44.7817322], [-0.9912155, 44.7836545], [-0.9924082, 44.7885564], [-0.9947555, 44.7897845], [-0.99622, 44.79332], [-0.9958694, 44.7980834], [-0.9934975, 44.8013822], [-0.9969494, 44.8042366], [-0.9980906, 44.8102489], [-1.0005255, 44.8114945], [-1.00199, 44.81503], [-1.0004694, 44.8225834], [-0.99524, 44.82621], [-0.9906206, 44.8231234], [-0.9908334, 44.8189782], [-0.9844245, 44.8158755], [-0.983174, 44.8134159], [-0.9781066, 44.8141394], [-0.9754006, 44.8114334], [-0.9765903, 44.8059137], [-0.9748506, 44.8038534], [-0.9743106, 44.7976666], [-0.9772845, 44.7907745], [-0.9804243, 44.7893887], [-0.9762545, 44.7879555], [-0.9752907, 44.7823268], [-0.97267, 44.78318], [-0.9694978, 44.7819583], [-0.95932, 44.78815], [-0.9520566, 44.7867394], [-0.9478858, 44.783848], [-0.9454234, 44.7861894], [-0.93997, 44.78773], [-0.9305066, 44.7868694], [-0.9256306, 44.7816134], [-0.92625, 44.775366], [-0.9249368, 44.7727893], [-0.9215252, 44.7694124], [-0.9181074, 44.7691496], [-0.9174494, 44.7739934], [-0.9147434, 44.7766994], [-0.9109166, 44.7766994], [-0.9078326, 44.7720669], [-0.9054424, 44.7715982], [-0.8952043, 44.7729878], [-0.8923694, 44.7801834], [-0.8896634, 44.7828894], [-0.8725531, 44.7796324], [-0.8697534, 44.7828094], [-0.8659266, 44.7828094], [-0.8632206, 44.7801034], [-0.8632206, 44.7762766], [-0.8659266, 44.7735706], [-0.8684046, 44.7733023], [-0.8621866, 44.7732494], [-0.8594806, 44.7705434], [-0.8608233, 44.7640198], [-0.85887, 44.75734], [-0.8605295, 44.7515833], [-0.8594486, 44.7497822], [-0.8532634, 44.7525794], [-0.84771, 44.75273], [-0.8403737, 44.7473252], [-0.8288687, 44.7459519], [-0.82002, 44.7509], [-0.8157902, 44.7483965], [-0.80893, 44.75198], [-0.7972873, 44.7492001], [-0.7931, 44.75164], [-0.7895645, 44.7501755], [-0.7881164, 44.7467222], [-0.7820745, 44.7436055], [-0.77981, 44.73645], [-0.7828966, 44.7318306], [-0.7908872, 44.7307131], [-0.7944366, 44.7252506], [-0.8005704, 44.7261047], [-0.7996753, 44.720535], [-0.7950306, 44.7174534], [-0.7961145, 44.7120045], [-0.79965, 44.71054], [-0.8029216, 44.7118281], [-0.8043745, 44.7082345], [-0.80791, 44.70677], [-0.8163446, 44.7096535], [-0.8177945, 44.7060445], [-0.82133, 44.70458], [-0.8334434, 44.7080706], [-0.8361494, 44.7107766], [-0.8362734, 44.7139802], [-0.84173, 44.7108], [-0.858313, 44.7167888], [-0.8690834, 44.7189406], [-0.8717894, 44.7216466], [-0.8719803, 44.7245134], [-0.8739678, 44.7249114], [-0.87841, 44.72209], [-0.8874634, 44.7239106], [-0.8899402, 44.7262736], [-0.8974634, 44.7278406], [-0.9003096, 44.7312517], [-0.9051561, 44.7340671], [-0.9086634, 44.7341306], [-0.9153133, 44.7387647], [-0.91927, 44.73667], [-0.9232417, 44.7387872], [-0.9252866, 44.7370706], [-0.9291134, 44.7370706], [-0.932191, 44.7417353], [-0.9361555, 44.7431145], [-0.9373435, 44.7452602], [-0.9417534, 44.7448706], [-0.9478855, 44.7493145], [-0.9502658, 44.7539064], [-0.9616734, 44.7533106], [-0.9645064, 44.7566551], [-0.9700255, 44.7580045], [-0.9727401, 44.762274], [-0.9735606, 44.7572566], [-0.9762666, 44.7545506], [-0.9800934, 44.7545506], [-0.982849, 44.7575057], [-0.9876436, 44.7581022], [-0.9909699, 44.7551426], [-0.9923145, 44.7510045], [-0.99585, 44.74954], [-0.9993855, 44.7510045], [-1.0024087, 44.757115], [-1.00688, 44.75425], [-1.0147363, 44.7553794], [-1.0170159, 44.7527218], [-1.01609, 44.74983], [-1.0173106, 44.7443166], [-1.0219166, 44.7401706], [-1.0305434, 44.7411706], [-1.0336036, 44.7445429], [-1.0384866, 44.7400806], [-1.0423134, 44.7400806], [-1.0450666, 44.7430239], [-1.0505355, 44.7440945], [-1.0528515, 44.7492041], [-1.0576334, 44.7496006], [-1.0604547, 44.7528862], [-1.06305, 44.75205], [-1.0665855, 44.7535145], [-1.0697628, 44.759859], [-1.0746655, 44.7611645], [-1.0764671, 44.7649972], [-1.0897534, 44.7652906], [-1.0947322, 44.7710255], [-1.0973957, 44.7708043], [-1.1007666, 44.7673806], [-1.1140712, 44.7668884], [-1.11789, 44.765], [-1.1214255, 44.7664645], [-1.1225937, 44.7714894], [-1.1279055, 44.7732445], [-1.1312575, 44.7803284], [-1.13558, 44.77825], [-1.1389689, 44.7796165], [-1.1417166, 44.7767006], [-1.1455434, 44.7767006], [-1.148602, 44.7811792], [-1.1535434, 44.7821206], [-1.1568794, 44.7858766], [-1.1568794, 44.7897034], [-1.1546116, 44.7929778], [-1.1557123, 44.7941516], [-1.1602367, 44.7934456], [-1.1632545, 44.7840345], [-1.1696138, 44.7821703], [-1.15957, 44.78201], [-1.1541945, 44.7795055], [-1.1531106, 44.7740566], [-1.1539906, 44.7703566], [-1.1566966, 44.7676506], [-1.1614834, 44.7673506], [-1.1651268, 44.7718756], [-1.1685381, 44.7723361], [-1.18325, 44.76421], [-1.1878694, 44.7672966], [-1.1883911, 44.7721316], [-1.1940601, 44.7727405], [-1.1971466, 44.7697906], [-1.2065161, 44.7698264], [-1.21022, 44.76811], [-1.2138315, 44.7696882], [-1.2185934, 44.7691106]], [[-1.0189284, 44.7629722], [-1.0187909, 44.7629854], [-1.0189368, 44.7630144], [-1.0189284, 44.7629722]], [[-1.1861749, 44.7809341], [-1.1878953, 44.7804171], [-1.1865231, 44.7789109], [-1.1861749, 44.7809341]], [[-1.0826807, 44.7800331], [-1.0865803, 44.7808419], [-1.0869339, 44.7788602], [-1.0826807, 44.7800331]], [[-1.0684727, 44.8034869], [-1.0704845, 44.8025645], [-1.0712215, 44.802072], [-1.0684727, 44.8034869]], [[-1.0011166, 44.8791206], [-1.01324, 44.87788], [-1.0162617, 44.8790011], [-1.0204585, 44.8760856], [-1.0212978, 44.8726158], [-1.01889, 44.86845], [-1.0218045, 44.8613545], [-1.0258579, 44.8583127], [-1.0241469, 44.8566164], [-1.0201934, 44.8590894], [-1.0149125, 44.859122], [-1.0119834, 44.8629494], [-1.0081566, 44.8629494], [-1.0054506, 44.8602434], [-1.0053047, 44.8571502], [-1.00077, 44.86011], [-0.9972345, 44.8586455], [-0.99577, 44.85511], [-0.9966892, 44.8507604], [-0.9942461, 44.8497674], [-0.9889466, 44.8543971], [-0.9860455, 44.8605655], [-0.98251, 44.86203], [-0.9800071, 44.8612555], [-0.9751085, 44.8637483], [-0.9763794, 44.8669568], [-0.9812234, 44.8677606], [-0.9876655, 44.8713545], [-0.9890224, 44.8754308], [-0.9934555, 44.8769145], [-0.9952883, 44.8821821], [-1.0011166, 44.8791206]], [[-1.0487887, 44.9291599], [-1.0521042, 44.9232476], [-1.0495206, 44.9206234], [-1.049274, 44.9180361], [-1.0397066, 44.9179294], [-1.0370006, 44.9152234], [-1.036883, 44.9099315], [-1.0312552, 44.9121414], [-1.0292853, 44.9148602], [-1.0319034, 44.9151006], [-1.0346094, 44.9178066], [-1.0335255, 44.9232555], [-1.02999, 44.92472], [-1.0231841, 44.9238381], [-1.0204034, 44.9269194], [-1.0163489, 44.9267673], [-1.0155252, 44.9325666], [-1.02059, 44.93], [-1.0268478, 44.9305378], [-1.03249, 44.92679], [-1.0371136, 44.9298975], [-1.0384045, 44.9272345], [-1.04194, 44.92577], [-1.0454755, 44.9272345], [-1.0467455, 44.9297921], [-1.0487887, 44.9291599]], [[-1.0606307, 44.9253736], [-1.0590231, 44.9234192], [-1.0555858, 44.9234224], [-1.0588592, 44.9264564], [-1.0606307, 44.9253736]], [[-1.0055295, 44.9424283], [-1.0081966, 44.9397806], [-1.0122083, 44.9399041], [-1.0123886, 44.9389979], [-1.0036928, 44.9388771], [-1.0055295, 44.9424283]], [[-1.0354333, 44.9507341], [-1.0350129, 44.9508177], [-1.0349677, 44.9510452], [-1.0354333, 44.9507341]], [[-1.0796904, 44.9540514], [-1.0815121, 44.9546806], [-1.0839203, 44.9533748], [-1.0820729, 44.9527427], [-1.0796904, 44.9540514]], [[-1.08316, 44.96954], [-1.0870471, 44.973537], [-1.0919203, 44.9697348], [-1.0878499, 44.9663676], [-1.08316, 44.96954]], [[-0.9232283, 44.7445728], [-0.9230588, 44.7453798], [-0.9235522, 44.7450575], [-0.9232283, 44.7445728]], [[-0.9421645, 44.8823945], [-0.9439761, 44.8799912], [-0.9407145, 44.8777555], [-0.93925, 44.87422], [-0.9407145, 44.8706845], [-0.9460349, 44.869575], [-0.9477108, 44.8660066], [-0.9452466, 44.8613791], [-0.93998, 44.86443], [-0.9364445, 44.8629655], [-0.9337955, 44.8583302], [-0.9275717, 44.8589198], [-0.9242294, 44.8682534], [-0.9200398, 44.8730292], [-0.9229255, 44.8743645], [-0.9258293, 44.87915], [-0.93711, 44.87905], [-0.9421645, 44.8823945]], [[-0.9607745, 44.8748855], [-0.9581787, 44.8729552], [-0.9558296, 44.8736501], [-0.9581157, 44.8751879], [-0.9607745, 44.8748855]], [[-0.9144367, 44.8882927], [-0.9141937, 44.8879109], [-0.9140891, 44.8882236], [-0.9144367, 44.8882927]], [[-0.9756366, 44.8887054], [-0.9753909, 44.8885412], [-0.9754797, 44.8886742], [-0.9756366, 44.8887054]], [[-0.9435623, 44.8956112], [-0.9480634, 44.8951606], [-0.9507171, 44.8977884], [-0.96057, 44.89557], [-0.9639032, 44.8968993], [-0.9667929, 44.8931231], [-0.95809, 44.89272], [-0.9537318, 44.8905595], [-0.9511434, 44.8930894], [-0.9428507, 44.8940654], [-0.9435623, 44.8956112]], [[-1.00311, 44.9186], [-1.0040869, 44.9157789], [-1.0015421, 44.9117924], [-0.9972145, 44.9104855], [-0.9921206, 44.9020634], [-0.9927842, 44.8946275], [-0.9762334, 44.8890446], [-0.9784694, 44.8914366], [-0.9784694, 44.8952634], [-0.9736236, 44.898305], [-0.9708431, 44.9111263], [-0.9755339, 44.9112375], [-0.9789766, 44.9067006], [-0.9882634, 44.9075206], [-0.9943794, 44.9157866], [-0.9946339, 44.918334], [-1.00311, 44.9186]], [[-0.9850572, 44.9221418], [-0.9846858, 44.92239], [-0.9850905, 44.9223095], [-0.9850572, 44.9221418]], [[-0.9978145, 44.9485355], [-0.9944195, 44.9420836], [-0.9917867, 44.9431311], [-0.9916294, 44.9462734], [-0.9878113, 44.9492006], [-0.98853, 44.95162], [-0.986801, 44.955551], [-0.9890487, 44.9608006], [-0.9960016, 44.9589127], [-0.99294, 44.95431], [-0.9944045, 44.9507745], [-0.9978145, 44.9485355]], [[-0.996836, 44.9590904], [-0.9964684, 44.9590173], [-0.9968756, 44.9592894], [-0.996836, 44.9590904]]], [[[-1.1489855, 44.9493855], [-1.145269, 44.950814], [-1.1422134, 44.9555894], [-1.1356039, 44.9557588], [-1.1340294, 44.9737834], [-1.1313234, 44.9764894], [-1.1258745, 44.9754055], [-1.1245434, 44.9711994], [-1.1139666, 44.9705394], [-1.1112606, 44.9678334], [-1.1112606, 44.9640066], [-1.116009, 44.9609457], [-1.1174445, 44.9572645], [-1.1256553, 44.956017], [-1.1275445, 44.9470345], [-1.135791, 44.9457961], [-1.1366006, 44.9384066], [-1.1393066, 44.9357006], [-1.14594, 44.93552], [-1.1494755, 44.9369845], [-1.15094, 44.94052], [-1.1489855, 44.9493855]]]]}}, {"type": "Feature", "properties": {}, "geometry": {"type": "MultiPolygon", "coordinates": [[[[-0.6264634, 44.4644406], [-0.6317494, 44.4682766], [-0.633523, 44.4767287], [-0.6363866, 44.4732306], [-0.6418355, 44.4743145], [-0.6433, 44.47785], [-0.6418355, 44.4813855], [-0.6383, 44.48285], [-0.634167, 44.4804913], [-0.6325833, 44.4831342], [-0.63541, 44.48758], [-0.6323234, 44.4921994], [-0.6268745, 44.4911155], [-0.62541, 44.48758], [-0.6272167, 44.4838158], [-0.6248923, 44.4814656], [-0.6233538, 44.4821465], [-0.6245094, 44.4876434], [-0.6218034, 44.4903494], [-0.6170617, 44.4897381], [-0.61356, 44.49118], [-0.6086726, 44.4885546], [-0.6101679, 44.4954703], [-0.6125455, 44.4967045], [-0.6138883, 44.5008518], [-0.6178855, 44.5022245], [-0.6192017, 44.5050143], [-0.6269955, 44.5071145], [-0.6289372, 44.512647], [-0.6321165, 44.512458], [-0.63667, 44.50947], [-0.6450286, 44.5115882], [-0.6531, 44.50778], [-0.6577194, 44.5108666], [-0.6554694, 44.5279734], [-0.6527634, 44.5306794], [-0.6483094, 44.5304166], [-0.6479994, 44.5332034], [-0.6426234, 44.5394394], [-0.6243742, 44.5376354], [-0.6212851, 44.5400143], [-0.6198555, 44.5437255], [-0.61632, 44.54519], [-0.6032445, 44.5413855], [-0.6001406, 44.5370134], [-0.6001346, 44.533217], [-0.5941534, 44.5374494], [-0.5887418, 44.5368504], [-0.58409, 44.5401], [-0.5768368, 44.5351088], [-0.57383, 44.53622], [-0.5708664, 44.5351377], [-0.56629, 44.53816], [-0.5622231, 44.5371729], [-0.5599253, 44.5398841], [-0.56151, 44.5435], [-0.5600455, 44.5470355], [-0.55651, 44.5485], [-0.5522581, 44.5466396], [-0.5529994, 44.5521034], [-0.5494323, 44.5549807], [-0.548848, 44.5587841], [-0.55163, 44.5632], [-0.5495655, 44.5790355], [-0.54603, 44.5805], [-0.5419777, 44.5791643], [-0.53786, 44.5815], [-0.533859, 44.5797703], [-0.5293468, 44.5814131], [-0.5255234, 44.5880694], [-0.5216966, 44.5880694], [-0.5195739, 44.5862363], [-0.5183155, 44.5887355], [-0.51478, 44.5902], [-0.503664, 44.5875638], [-0.4998334, 44.5931794], [-0.49281, 44.59306], [-0.4890978, 44.5913311], [-0.48259, 44.59373], [-0.4792688, 44.5924088], [-0.47308, 44.59387], [-0.4695445, 44.5924055], [-0.4662585, 44.5863361], [-0.4592145, 44.5851355], [-0.4575964, 44.5768369], [-0.4538, 44.5779], [-0.4497702, 44.5767841], [-0.4485655, 44.5816255], [-0.44503, 44.58309], [-0.4404106, 44.5800034], [-0.4404106, 44.5761766], [-0.4444818, 44.573199], [-0.4440023, 44.569622], [-0.4396445, 44.5669055], [-0.43818, 44.56337], [-0.4409671, 44.5589507], [-0.43984, 44.55592], [-0.4408606, 44.5517766], [-0.4463433, 44.5480757], [-0.44402, 44.54073], [-0.4445661, 44.53786], [-0.4399245, 44.5366155], [-0.4388406, 44.5311666], [-0.44346, 44.52808], [-0.4469955, 44.5295445], [-0.4482071, 44.5318086], [-0.4483306, 44.5260366], [-0.4534483, 44.5229199], [-0.4546399, 44.5052603], [-0.4528306, 44.5031534], [-0.4528306, 44.4993266], [-0.4555366, 44.4966206], [-0.460941, 44.4976747], [-0.4616452, 44.4964464], [-0.4611699, 44.4946828], [-0.4545145, 44.4923655], [-0.4534306, 44.4869166], [-0.45805, 44.48383], [-0.4657032, 44.4862493], [-0.4679366, 44.4842506], [-0.4715162, 44.4841229], [-0.4727545, 44.4817245], [-0.4784775, 44.4783447], [-0.4786006, 44.4751366], [-0.4820656, 44.4705601], [-0.4828845, 44.4647145], [-0.4936917, 44.4629394], [-0.49109, 44.45761], [-0.4941766, 44.4529906], [-0.5028634, 44.4533006], [-0.5060477, 44.456377], [-0.5089666, 44.4526006], [-0.5140218, 44.4527534], [-0.518595, 44.4514059], [-0.5213566, 44.4484206], [-0.5251834, 44.4484206], [-0.5278894, 44.4511266], [-0.5278884, 44.4549549], [-0.53716, 44.45484], [-0.5406955, 44.4563045], [-0.5456894, 44.4617566], [-0.5453549, 44.468032], [-0.5482509, 44.4677153], [-0.5513066, 44.4629406], [-0.5551883, 44.4629773], [-0.5572066, 44.4613006], [-0.5688583, 44.4626719], [-0.5807534, 44.4604006], [-0.5836777, 44.464204], [-0.5898134, 44.4649806], [-0.5925194, 44.4676866], [-0.5920415, 44.4782723], [-0.5977866, 44.4734006], [-0.6038099, 44.4731488], [-0.6049345, 44.4679045], [-0.6090522, 44.4665558], [-0.6103945, 44.4636345], [-0.6170366, 44.4592906], [-0.6208634, 44.4592906], [-0.6241006, 44.4641494], [-0.6264634, 44.4644406]], [[-0.5189232, 44.4609488], [-0.5187646, 44.461746], [-0.5193453, 44.460877], [-0.5189232, 44.4609488]], [[-0.6181489, 44.4744035], [-0.617087, 44.475113], [-0.6163256, 44.4780076], [-0.6180036, 44.4799564], [-0.6181489, 44.4744035]], [[-0.5996796, 44.4918452], [-0.6001145, 44.4924961], [-0.6000433, 44.4916022], [-0.5996796, 44.4918452]], [[-0.6033001, 44.4981146], [-0.6009385, 44.4956701], [-0.599096, 44.4990593], [-0.6006838, 44.5000464], [-0.6033001, 44.4981146]], [[-0.53362, 44.50865], [-0.5346991, 44.5088646], [-0.53389, 44.50631], [-0.5353545, 44.5027745], [-0.5390688, 44.5013456], [-0.5373123, 44.4977121], [-0.53134, 44.49894], [-0.5280158, 44.4976168], [-0.52398, 44.49983], [-0.5138008, 44.4985499], [-0.5155176, 44.5049463], [-0.5184693, 44.5065068], [-0.52695, 44.50504], [-0.53362, 44.50865]], [[-0.5717245, 44.5265555], [-0.57026, 44.52302], [-0.5717245, 44.5194845], [-0.5771201, 44.51839], [-0.5798566, 44.5155306], [-0.5850838, 44.5164663], [-0.5805706, 44.5112534], [-0.5812571, 44.5063991], [-0.5787846, 44.5029075], [-0.5754255, 44.5089755], [-0.5716824, 44.5103987], [-0.5671396, 44.5151275], [-0.5673194, 44.5192234], [-0.5640431, 44.5252493], [-0.5676755, 44.5266945], [-0.5692536, 44.5292423], [-0.5717245, 44.5265555]], [[-0.6017354, 44.531223], [-0.601883, 44.5311245], [-0.6017599, 44.5311], [-0.6017354, 44.531223]], [[-0.5185854, 44.462174], [-0.5174855, 44.4636958], [-0.5182978, 44.4642385], [-0.51825, 44.46386], [-0.5185854, 44.462174]], [[-0.50308, 44.49723], [-0.5079352, 44.4945018], [-0.5078372, 44.4929312], [-0.5013121, 44.4955128], [-0.5014831, 44.4975476], [-0.50308, 44.49723]], [[-0.4963145, 44.5226245], [-0.5004378, 44.5209059], [-0.4903692, 44.5215745], [-0.494169, 44.5237186], [-0.4963145, 44.5226245]], [[-0.4811111, 44.5319272], [-0.4835767, 44.528721], [-0.4829322, 44.528098], [-0.4803163, 44.5320853], [-0.4811111, 44.5319272]], [[-0.4701, 44.53476], [-0.4721088, 44.5352043], [-0.4777837, 44.5337147], [-0.4688405, 44.5336101], [-0.4685725, 44.5350638], [-0.4701, 44.53476]], [[-0.5089537, 44.5475297], [-0.5091453, 44.5478165], [-0.5090574, 44.5473745], [-0.5089537, 44.5475297]], [[-0.5121266, 44.550994], [-0.5123289, 44.5506914], [-0.5094747, 44.5483635], [-0.5095287, 44.5517652], [-0.5121266, 44.550994]]], [[[-0.43943, 44.54846], [-0.4358945, 44.5469955], [-0.43443, 44.54346], [-0.4358945, 44.5399245], [-0.43943, 44.53846], [-0.4429655, 44.5399245], [-0.44443, 44.54346], [-0.4429655, 44.5469955], [-0.43943, 44.54846]]]]}}, {"type": "Feature", "properties": {}, "geometry": {"type": "Polygon", "coordinates": [[[-0.5505345, 44.7326645], [-0.5559834, 44.7315806], [-0.5601255, 44.7346045], [-0.56159, 44.73814], [-0.5601255, 44.7416755], [-0.55615, 44.74321], [-0.5526145, 44.7417455], [-0.5494506, 44.7381134], [-0.5505345, 44.7326645]]]}}, {"type": "Feature", "properties": {}, "geometry": {"type": "Polygon", "coordinates": [[[-0.5964434, 44.4559606], [-0.5991494, 44.4586666], [-0.60005, 44.46294], [-0.5996194, 44.4689134], [-0.5969134, 44.4716194], [-0.58437, 44.47404], [-0.5805057, 44.4720835], [-0.576, 44.475], [-0.5720245, 44.472877], [-0.5670866, 44.4736194], [-0.5643806, 44.4709134], [-0.5643806, 44.4670866], [-0.5681705, 44.464165], [-0.5697929, 44.4599518], [-0.5661745, 44.4579255], [-0.56471, 44.45439], [-0.5677966, 44.4497706], [-0.5716234, 44.4497706], [-0.57456, 44.453636], [-0.5778738, 44.4549664], [-0.5821134, 44.4546906], [-0.5849633, 44.4581199], [-0.5901954, 44.4582404], [-0.5926166, 44.4559606], [-0.5964434, 44.4559606]]]}}, {"type": "Feature", "properties": {}, "geometry": {"type": "Polygon", "coordinates": [[[-0.57292, 45.08153], [-0.5764555, 45.0829945], [-0.5775394, 45.0884434], [-0.5731139, 45.0916541], [-0.5718455, 45.0961755], [-0.5673634, 45.0984294], [-0.5635366, 45.0984294], [-0.5608306, 45.0957234], [-0.5608306, 45.0918966], [-0.5653261, 45.0887359], [-0.5665945, 45.0842145], [-0.57292, 45.08153]]]}}, {"type": "Feature", "properties": {}, "geometry": {"type": "Polygon", "coordinates": [[[-0.65427, 44.43835], [-0.6593134, 44.4398806], [-0.6620194, 44.4425866], [-0.6602655, 44.4513955], [-0.6490909, 44.4533272], [-0.6460634, 44.4576494], [-0.6406145, 44.4565655], [-0.638715, 44.4507638], [-0.6347806, 44.4478134], [-0.6358645, 44.4423645], [-0.6394, 44.4409], [-0.6429353, 44.4423643], [-0.6456866, 44.4394306], [-0.6506514, 44.4399388], [-0.65427, 44.43835]]]}}, {"type": "Feature", "properties": {}, "geometry": {"type": "Polygon", "coordinates": [[[-0.6522134, 44.4048906], [-0.6591294, 44.4116666], [-0.6586628, 44.4161917], [-0.6624694, 44.4191166], [-0.6617327, 44.4255625], [-0.66326, 44.42914], [-0.6617955, 44.4326755], [-0.6585969, 44.434073], [-0.6562955, 44.4413055], [-0.65276, 44.44277], [-0.6457466, 44.4417094], [-0.6356945, 44.4324955], [-0.63423, 44.42896], [-0.6356923, 44.4233747], [-0.63387, 44.4196], [-0.6353345, 44.4160645], [-0.6386044, 44.4146528], [-0.6398845, 44.4120445], [-0.6448578, 44.410866], [-0.6467645, 44.4059745], [-0.6522134, 44.4048906]]]}}, {"type": "Feature", "properties": {}, "geometry": {"type": "Polygon", "coordinates": [[[-0.6372866, 44.5155806], [-0.6411134, 44.5155806], [-0.6438194, 44.5182866], [-0.6440329, 44.5210399], [-0.6496155, 44.5220345], [-0.6527494, 44.5277766], [-0.6527494, 44.5316034], [-0.6474834, 44.5362794], [-0.6371566, 44.5355194], [-0.6344506, 44.5328134], [-0.6344506, 44.5289866], [-0.6388989, 44.5251401], [-0.6356645, 44.5237355], [-0.6342, 44.5202], [-0.6372866, 44.5155806]]]}}, {"type": "Feature", "properties": {}, "geometry": {"type": "Polygon", "coordinates": [[[-0.6724645, 44.9712645], [-0.6779134, 44.9701806], [-0.6844755, 44.9737745], [-0.68594, 44.97731], [-0.6844755, 44.9808455], [-0.67687, 44.98308], [-0.6725145, 44.9816655], [-0.6709, 44.97577], [-0.6724645, 44.9712645]]]}}, {"type": "Feature", "properties": {}, "geometry": {"type": "Polygon", "coordinates": [[[-0.6979134, 44.4853806], [-0.701, 44.49], [-0.6959134, 44.4986194], [-0.6906102, 44.4976329], [-0.68542, 44.49974], [-0.6788866, 44.4978294], [-0.6761806, 44.4951234], [-0.6753806, 44.4890866], [-0.6820866, 44.4833806], [-0.6928852, 44.4861833], [-0.6979134, 44.4853806]]]}}, {"type": "Feature", "properties": {}, "geometry": {"type": "Polygon", "coordinates": [[[-0.7081866, 44.1941806], [-0.7120134, 44.1941806], [-0.7147194, 44.1968866], [-0.7133059, 44.2025558], [-0.7158994, 44.2051866], [-0.7158994, 44.2090134], [-0.7131934, 44.2117194], [-0.7029966, 44.2118494], [-0.7002906, 44.2091434], [-0.7000706, 44.1991866], [-0.7081866, 44.1941806]]]}}, {"type": "Feature", "properties": {}, "geometry": {"type": "Polygon", "coordinates": [[[-0.7809045, 44.4315645], [-0.7863534, 44.4304806], [-0.7890594, 44.4331866], [-0.7890594, 44.4370134], [-0.7872855, 44.4390966], [-0.7893151, 44.4421604], [-0.7934055, 44.4435145], [-0.79743, 44.45059], [-0.793484, 44.4564959], [-0.7978555, 44.4580245], [-0.7994215, 44.4618268], [-0.8016918, 44.4586747], [-0.7973506, 44.4556434], [-0.7973506, 44.4518166], [-0.8000566, 44.4491106], [-0.8055055, 44.4501945], [-0.80697, 44.45373], [-0.8044882, 44.4579453], [-0.8088294, 44.4609766], [-0.8088294, 44.4648034], [-0.80421, 44.46789], [-0.8003702, 44.4659701], [-0.7989455, 44.4693055], [-0.7960164, 44.4706494], [-0.79746, 44.47649], [-0.7959955, 44.4800255], [-0.7814172, 44.4861552], [-0.7748555, 44.5057755], [-0.7699319, 44.5069639], [-0.7674334, 44.5093594], [-0.763455, 44.5092581], [-0.7633194, 44.5124034], [-0.7606134, 44.5151094], [-0.7567866, 44.5151094], [-0.7522551, 44.5105405], [-0.74622, 44.5149], [-0.740642, 44.5121947], [-0.73689, 44.51374], [-0.7341347, 44.5127968], [-0.73521, 44.51575], [-0.7339994, 44.5212434], [-0.7312934, 44.5239494], [-0.7274666, 44.5239494], [-0.7244906, 44.5206142], [-0.71791, 44.52296], [-0.7097415, 44.5220925], [-0.7064806, 44.5230445], [-0.7023455, 44.5305355], [-0.69438, 44.53272], [-0.6879609, 44.5300442], [-0.68389, 44.53231], [-0.6804872, 44.5309531], [-0.6750166, 44.5320694], [-0.6638361, 44.5246265], [-0.65976, 44.5269], [-0.6530766, 44.5257394], [-0.6503706, 44.5230334], [-0.6503568, 44.5192757], [-0.6430166, 44.5163394], [-0.6403106, 44.5136334], [-0.6413945, 44.5081845], [-0.6467166, 44.5051806], [-0.6550792, 44.5052289], [-0.6567325, 44.5018188], [-0.6498874, 44.4900422], [-0.6464766, 44.4899594], [-0.6437706, 44.4872534], [-0.6448545, 44.4818045], [-0.6483084, 44.4803562], [-0.6485306, 44.4776466], [-0.6512366, 44.4749406], [-0.6559624, 44.4755413], [-0.6587966, 44.4721906], [-0.6623983, 44.4721458], [-0.6669566, 44.4671006], [-0.671705, 44.4677164], [-0.6744666, 44.4647306], [-0.6777971, 44.4646319], [-0.6774106, 44.4602266], [-0.6801166, 44.4575206], [-0.692204, 44.4597519], [-0.6935945, 44.4558445], [-0.6984801, 44.453942], [-0.6985106, 44.4494466], [-0.7006545, 44.4471162], [-0.69937, 44.44385], [-0.7008506, 44.4377266], [-0.7035566, 44.4350206], [-0.7087392, 44.4359265], [-0.7103945, 44.4320345], [-0.71393, 44.43057], [-0.7182054, 44.4331418], [-0.7210459, 44.4313497], [-0.72018, 44.42871], [-0.7216445, 44.4251745], [-0.72518, 44.42371], [-0.7287155, 44.4251745], [-0.7301466, 44.428878], [-0.7326534, 44.4291406], [-0.7354574, 44.4323392], [-0.73925, 44.43049], [-0.7447936, 44.4306772], [-0.75445, 44.42366], [-0.7590694, 44.4267466], [-0.7590464, 44.4306078], [-0.76408, 44.42708], [-0.7767034, 44.4302506], [-0.7798049, 44.4332657], [-0.7809045, 44.4315645]], [[-0.7684266, 44.4480604], [-0.7686814, 44.4481111], [-0.7685645, 44.448033], [-0.7684266, 44.4480604]], [[-0.7119427, 44.4485615], [-0.7119596, 44.4485728], [-0.7119648, 44.4485467], [-0.7119427, 44.4485615]], [[-0.7302591, 44.4679557], [-0.7328116, 44.4651276], [-0.7329959, 44.464201], [-0.727883, 44.4670644], [-0.7302591, 44.4679557]], [[-0.7189854, 44.4730667], [-0.7213714, 44.4739439], [-0.7224854, 44.4720675], [-0.7201109, 44.4711843], [-0.7189854, 44.4730667]], [[-0.73433, 44.4765], [-0.7345154, 44.4745275], [-0.7321409, 44.4736443], [-0.7312023, 44.475231], [-0.73433, 44.4765]], [[-0.7327669, 44.5113962], [-0.732738, 44.5115413], [-0.7329653, 44.5116932], [-0.7327669, 44.5113962]]]}}, {"type": "Feature", "properties": {}, "geometry": {"type": "Polygon", "coordinates": [[[-0.7394645, 44.9664645], [-0.7449134, 44.9653806], [-0.748, 44.97], [-0.7465355, 44.9735355], [-0.7424685, 44.974924], [-0.7451694, 44.9776266], [-0.7451694, 44.9814534], [-0.74055, 44.98454], [-0.7359306, 44.9814534], [-0.7361308, 44.9773255], [-0.73273, 44.9787], [-0.7291945, 44.9772355], [-0.72648, 44.97029], [-0.7295666, 44.9656706], [-0.7333934, 44.9656706], [-0.7359788, 44.968196], [-0.7394645, 44.9664645]]]}}, {"type": "Feature", "properties": {}, "geometry": {"type": "Polygon", "coordinates": [[[-0.73605, 44.96282], [-0.7395855, 44.9642845], [-0.7411111, 44.9680324], [-0.744, 44.967], [-0.7475355, 44.9684645], [-0.7508694, 44.9754666], [-0.7508694, 44.9792934], [-0.7436334, 44.9867694], [-0.7381845, 44.9856855], [-0.7356806, 44.9804834], [-0.736036, 44.9761248], [-0.7296166, 44.9772194], [-0.7254906, 44.9709234], [-0.7265745, 44.9654745], [-0.73605, 44.96282]]]}}, {"type": "Feature", "properties": {}, "geometry": {"type": "Polygon", "coordinates": [[[-0.7294545, 44.9671945], [-0.7349034, 44.9661106], [-0.7385271, 44.9718388], [-0.74513, 44.97067], [-0.7486655, 44.9721345], [-0.75125, 44.97897], [-0.7497855, 44.9825055], [-0.74129, 44.98481], [-0.7377545, 44.9833455], [-0.7357529, 44.9787112], [-0.7321866, 44.9786594], [-0.7294806, 44.9759534], [-0.72799, 44.97073], [-0.7294545, 44.9671945]]]}}, {"type": "Feature", "properties": {}, "geometry": {"type": "Polygon", "coordinates": [[[-0.7294845, 44.9672645], [-0.7349334, 44.9661806], [-0.7376394, 44.9688866], [-0.7377137, 44.9723401], [-0.7421234, 44.9719506], [-0.74463, 44.9743582], [-0.7498155, 44.9754945], [-0.75128, 44.97903], [-0.7498155, 44.9825655], [-0.74132, 44.98488], [-0.7377845, 44.9834155], [-0.7355163, 44.9750299], [-0.7311066, 44.9754194], [-0.7284006, 44.9727134], [-0.7294845, 44.9672645]]]}}, {"type": "Feature", "properties": {}, "geometry": {"type": "Polygon", "coordinates": [[[-0.9917755, 44.8964145], [-0.9969094, 44.9024666], [-0.9961495, 44.9074307], [-1.0037094, 44.9147166], [-1.0037094, 44.9185434], [-0.9997234, 44.9246694], [-0.9958966, 44.9246694], [-0.9904357, 44.9217491], [-0.9890211, 44.9226698], [-0.9892194, 44.9267934], [-0.9871818, 44.9313472], [-0.9896255, 44.9325945], [-0.99109, 44.93613], [-0.9855694, 44.9517034], [-0.9813734, 44.9549594], [-0.9733493, 44.9557163], [-0.9791555, 44.9570445], [-0.98062, 44.96058], [-0.9776794, 44.9693334], [-0.9749734, 44.9720394], [-0.9642045, 44.9699355], [-0.9628619, 44.9630493], [-0.9602734, 44.9655794], [-0.9549342, 44.9645689], [-0.9500549, 44.9661474], [-0.9470434, 44.9703894], [-0.9377282, 44.9692703], [-0.9346934, 44.9736294], [-0.9244111, 44.9740354], [-0.9218134, 44.9765794], [-0.9179866, 44.9765794], [-0.9149, 44.97196], [-0.9173559, 44.9654663], [-0.9138106, 44.9625934], [-0.9145847, 44.9576081], [-0.8977066, 44.9543794], [-0.8950006, 44.9516734], [-0.8950006, 44.9478466], [-0.8977066, 44.9451406], [-0.9017489, 44.9452846], [-0.9043466, 44.9427406], [-0.9149973, 44.9404769], [-0.9175966, 44.9379306], [-0.9216366, 44.938073], [-0.9247896, 44.9325897], [-0.92373, 44.92966], [-0.9251945, 44.9261245], [-0.9359683, 44.9184487], [-0.9383645, 44.9133045], [-0.9438929, 44.9122737], [-0.9466618, 44.9097896], [-0.9464706, 44.9056766], [-0.9504666, 44.8995406], [-0.9598235, 44.9006776], [-0.9647766, 44.8923806], [-0.97047, 44.89214], [-0.974384, 44.8941709], [-0.9796735, 44.8934476], [-0.98418, 44.89053], [-0.9877155, 44.8919945], [-0.9890986, 44.8951208], [-0.9917755, 44.8964145]], [[-0.9863034, 44.9055906], [-0.9864889, 44.9057145], [-0.9871452, 44.9047322], [-0.9861296, 44.9044378], [-0.9863034, 44.9055906]], [[-0.9758433, 44.9054515], [-0.9746793, 44.9035956], [-0.9735171, 44.9068243], [-0.9745504, 44.9071222], [-0.9758433, 44.9054515]], [[-0.9355812, 44.9588683], [-0.93553, 44.9589448], [-0.9356479, 44.9589683], [-0.9355812, 44.9588683]]]}}, {"type": "Feature", "properties": {}, "geometry": {"type": "Polygon", "coordinates": [[[-0.9433645, 45.2290245], [-0.9469, 45.22756], [-0.9504355, 45.2290245], [-0.952, 45.233], [-0.9505355, 45.2365355], [-0.947, 45.238], [-0.9426716, 45.2353489], [-0.9415355, 45.2405355], [-0.938, 45.242], [-0.9310866, 45.2396194], [-0.9283806, 45.2369134], [-0.9283606, 45.2330266], [-0.9310666, 45.2303206], [-0.9396934, 45.2319506], [-0.9422999, 45.2345077], [-0.9433645, 45.2290245]]]}}, {"type": "Feature", "properties": {}, "geometry": {"type": "Polygon", "coordinates": [[[-0.9630966, 44.3797506], [-0.9747755, 44.3813145], [-0.97624, 44.38485], [-0.9741055, 44.3928755], [-0.964, 44.395], [-0.9604645, 44.3935355], [-0.95949, 44.38635], [-0.9603906, 44.3824566], [-0.9630966, 44.3797506]]]}}, {"type": "Feature", "properties": {}, "geometry": {"type": "Polygon", "coordinates": [[[-0.9678445, 44.4733645], [-0.97138, 44.4719], [-0.9819134, 44.4733806], [-0.9846194, 44.4760866], [-0.9846194, 44.4799134], [-0.9769134, 44.4846194], [-0.9703966, 44.4848194], [-0.9667606, 44.4788134], [-0.9678445, 44.4733645]]]}}, {"type": "Feature", "properties": {}, "geometry": {"type": "Polygon", "coordinates": [[[-0.97456, 44.54598], [-0.9780955, 44.5474445], [-0.98204, 44.5557], [-0.9805755, 44.5592355], [-0.97563, 44.56108], [-0.9720945, 44.5596155], [-0.96817, 44.55135], [-0.9696345, 44.5478145], [-0.97456, 44.54598]]]}}, {"type": "Feature", "properties": {}, "geometry": {"type": "Polygon", "coordinates": [[[-0.9382366, 45.2053506], [-0.9420634, 45.2053506], [-0.9447694, 45.2080566], [-0.9456, 45.2149], [-0.9441355, 45.2184355], [-0.9338, 45.2204], [-0.9305498, 45.2191262], [-0.9291855, 45.2231655], [-0.92565, 45.22463], [-0.9167445, 45.2224755], [-0.9156606, 45.2170266], [-0.9183666, 45.2143206], [-0.9219303, 45.2142683], [-0.9239045, 45.2091945], [-0.92852, 45.20701], [-0.9353064, 45.2091835], [-0.9382366, 45.2053506]]]}}, {"type": "Feature", "properties": {}, "geometry": {"type": "Polygon", "coordinates": [[[-0.9144066, 44.5578606], [-0.9248634, 44.5588206], [-0.9277862, 44.5626163], [-0.9330134, 44.5616806], [-0.9357194, 44.5643866], [-0.9357194, 44.5682134], [-0.9330134, 44.5709194], [-0.9285914, 44.5705217], [-0.9264255, 44.5735055], [-0.92289, 44.57497], [-0.9191167, 44.5731497], [-0.91529, 44.57505], [-0.9114426, 44.5731187], [-0.9068066, 44.5736594], [-0.9041006, 44.5709534], [-0.9041006, 44.5671266], [-0.9068066, 44.5644206], [-0.9105061, 44.5643953], [-0.9107106, 44.5615966], [-0.9144066, 44.5578606]]]}}, {"type": "Feature", "properties": {}, "geometry": {"type": "Polygon", "coordinates": [[[-0.90484, 44.49218], [-0.9083755, 44.4936445], [-0.90976, 44.49862], [-0.9069455, 44.5043055], [-0.90341, 44.50577], [-0.8952745, 44.5009555], [-0.89381, 44.49742], [-0.8968966, 44.4928006], [-0.90484, 44.49218]]]}}, {"type": "Feature", "properties": {}, "geometry": {"type": "Polygon", "coordinates": [[[-0.9061455, 45.2015245], [-0.9072294, 45.2069734], [-0.9055491, 45.208994], [-0.9043094, 45.2173434], [-0.9009704, 45.2201753], [-0.90202, 45.22309], [-0.8996655, 45.2300655], [-0.8944893, 45.2312036], [-0.88987, 45.23429], [-0.8842138, 45.2307864], [-0.87971, 45.2337], [-0.8702545, 45.2307655], [-0.8691706, 45.2253166], [-0.8767649, 45.2195358], [-0.8753, 45.216], [-0.8771002, 45.2122401], [-0.8759, 45.2091], [-0.8773645, 45.2055645], [-0.88566, 45.20141], [-0.8930327, 45.2041353], [-0.8979978, 45.2031358], [-0.9006966, 45.2004406], [-0.9061455, 45.2015245]]]}}, {"type": "Feature", "properties": {}, "geometry": {"type": "Polygon", "coordinates": [[[-0.8075745, 44.7158645], [-0.8130234, 44.7147806], [-0.8157294, 44.7174866], [-0.8153398, 44.7218965], [-0.81996, 44.72041], [-0.8234955, 44.7218745], [-0.82639, 44.72902], [-0.8249255, 44.7325555], [-0.81537, 44.73522], [-0.8094645, 44.7315355], [-0.808, 44.728], [-0.8097202, 44.7241235], [-0.80611, 44.7194], [-0.8075745, 44.7158645]]]}}, {"type": "Feature", "properties": {}, "geometry": {"type": "Polygon", "coordinates": [[[-0.8046345, 44.7194445], [-0.80817, 44.71798], [-0.8128327, 44.7212844], [-0.81556, 44.72036], [-0.8190955, 44.7218245], [-0.82197, 44.72897], [-0.8205055, 44.7325055], [-0.813, 44.734], [-0.8060445, 44.7301155], [-0.80317, 44.72298], [-0.8046345, 44.7194445]]]}}, {"type": "Feature", "properties": {}, "geometry": {"type": "Polygon", "coordinates": [[[-0.81231, 44.71566], [-0.8219155, 44.7195945], [-0.8230698, 44.7246893], [-0.82558, 44.72391], [-0.8291155, 44.7253745], [-0.83058, 44.72891], [-0.8291155, 44.7324455], [-0.8236666, 44.7335294], [-0.8209606, 44.7308234], [-0.8208902, 44.7273507], [-0.8197136, 44.7278647], [-0.82065, 44.73061], [-0.8191855, 44.7341455], [-0.81565, 44.73561], [-0.8121145, 44.7341455], [-0.8112224, 44.7284095], [-0.8089941, 44.726183], [-0.8038145, 44.7250455], [-0.80235, 44.72151], [-0.8054366, 44.7168906], [-0.81231, 44.71566]]]}}, {"type": "Feature", "properties": {}, "geometry": {"type": "Polygon", "coordinates": [[[-0.8231934, 44.7176906], [-0.8258994, 44.7203966], [-0.8281494, 44.7270366], [-0.8270655, 44.7324855], [-0.81356, 44.73567], [-0.8100245, 44.7342055], [-0.80519, 44.72071], [-0.8066545, 44.7171745], [-0.81517, 44.71485], [-0.8195947, 44.7176452], [-0.8231934, 44.7176906]]]}}, {"type": "Feature", "properties": {}, "geometry": {"type": "Polygon", "coordinates": [[[-0.8196566, 44.7178006], [-0.8251055, 44.7188845], [-0.8273094, 44.7276434], [-0.8207534, 44.7345294], [-0.8119466, 44.7353794], [-0.80886, 44.73076], [-0.8103245, 44.7272245], [-0.8125323, 44.7260241], [-0.8119706, 44.7213566], [-0.8146766, 44.7186506], [-0.8196566, 44.7178006]]]}}, {"type": "Feature", "properties": {}, "geometry": {"type": "Polygon", "coordinates": [[[-0.8566784, 44.7249796], [-0.8590155, 44.7271336], [-0.8678355, 44.7287645], [-0.8693, 44.7323], [-0.8678355, 44.7358355], [-0.859868, 44.736964], [-0.8494695, 44.7331685], [-0.848005, 44.729633], [-0.8494695, 44.7260975], [-0.8566784, 44.7249796]]]}}, {"type": "Feature", "properties": {}, "geometry": {"type": "Polygon", "coordinates": [[[-0.8631545, 44.9051245], [-0.8686034, 44.9040406], [-0.8772159, 44.908927], [-0.8808234, 44.9089706], [-0.8835294, 44.9116766], [-0.8835294, 44.9155034], [-0.8788834, 44.9191394], [-0.8732122, 44.917723], [-0.8708534, 44.9199094], [-0.8670266, 44.9199094], [-0.8643206, 44.9172034], [-0.8620706, 44.9105734], [-0.8631545, 44.9051245]]]}}, {"type": "Feature", "properties": {}, "geometry": {"type": "Polygon", "coordinates": [[[-0.86917, 44.9038], [-0.8745355, 44.9064645], [-0.8759352, 44.9096744], [-0.8810294, 44.9126666], [-0.88254, 44.91789], [-0.8794534, 44.9225094], [-0.8695066, 44.9200494], [-0.8668006, 44.9173434], [-0.8667325, 44.9138591], [-0.8622766, 44.9142794], [-0.8595706, 44.9115734], [-0.8606545, 44.9061245], [-0.86917, 44.9038]]]}}, {"type": "Feature", "properties": {}, "geometry": {"type": "Polygon", "coordinates": [[[-0.8615966, 44.9028306], [-0.8654234, 44.9028306], [-0.8679359, 44.905247], [-0.87555, 44.90505], [-0.8790855, 44.9065145], [-0.88289, 44.91901], [-0.8814255, 44.9225455], [-0.8759766, 44.9236294], [-0.87235, 44.9179018], [-0.8671645, 44.9167655], [-0.8652381, 44.9122488], [-0.86277, 44.913], [-0.8592345, 44.9115355], [-0.8581506, 44.9060866], [-0.8615966, 44.9028306]]]}}, {"type": "Feature", "properties": {}, "geometry": {"type": "Polygon", "coordinates": [[[-0.7619134, 44.9413806], [-0.7668155, 44.9436045], [-0.76828, 44.94714], [-0.7668155, 44.9506755], [-0.7636914, 44.9520582], [-0.7625455, 44.9571955], [-0.75255, 44.95912], [-0.7490145, 44.9576555], [-0.74577, 44.95169], [-0.7473445, 44.9457945], [-0.7528398, 44.9447416], [-0.7555866, 44.9418306], [-0.7619134, 44.9413806]]]}}, {"type": "Feature", "properties": {}, "geometry": {"type": "Polygon", "coordinates": [[[-0.76487, 44.75767], [-0.7694894, 44.7607566], [-0.7685397, 44.7678314], [-0.7752955, 44.7704745], [-0.77676, 44.77401], [-0.7754194, 44.7792234], [-0.7706533, 44.7822808], [-0.7687955, 44.7865455], [-0.76526, 44.78801], [-0.7577058, 44.7864485], [-0.75317, 44.78941], [-0.7442917, 44.7869605], [-0.7368866, 44.7878194], [-0.7334045, 44.7848755], [-0.73194, 44.78134], [-0.7331148, 44.7782381], [-0.7295106, 44.7753534], [-0.7276506, 44.7685134], [-0.7287345, 44.7630645], [-0.73227, 44.7616], [-0.7381869, 44.7641067], [-0.7406548, 44.7612822], [-0.7418245, 44.7562645], [-0.74536, 44.7548], [-0.76487, 44.75767]], [[-0.7420638, 44.7711363], [-0.7400394, 44.7732579], [-0.743844, 44.7739686], [-0.7425205, 44.7712271], [-0.7420638, 44.7711363]]]}}, {"type": "Feature", "properties": {}, "geometry": {"type": "Polygon", "coordinates": [[[-0.8111866, 44.3343806], [-0.8150134, 44.3343806], [-0.8181, 44.339], [-0.8138855, 44.3470555], [-0.8089834, 44.3505294], [-0.8051566, 44.3505294], [-0.7945806, 44.3433134], [-0.7945806, 44.3394866], [-0.7972866, 44.3367806], [-0.8028167, 44.3379859], [-0.8085472, 44.3369868], [-0.8111866, 44.3343806]]]}}, {"type": "Feature", "properties": {}, "geometry": {"type": "Polygon", "coordinates": [[[-0.8034645, 44.6154645], [-0.8089134, 44.6143806], [-0.811684, 44.6174114], [-0.8168855, 44.6185445], [-0.82, 44.627], [-0.8185355, 44.6305355], [-0.815, 44.632], [-0.8111197, 44.6300195], [-0.80762, 44.63146], [-0.8040845, 44.6299955], [-0.80158, 44.62387], [-0.8034645, 44.6154645]]]}}, {"type": "Feature", "properties": {}, "geometry": {"type": "Polygon", "coordinates": [[[-1.2456, 44.51612], [-1.2491355, 44.5175845], [-1.2503133, 44.5228253], [-1.2560634, 44.5212906], [-1.25915, 44.52591], [-1.2560634, 44.5305294], [-1.2500674, 44.5299699], [-1.25366, 44.53469], [-1.2482294, 44.5529834], [-1.2416394, 44.5576874], [-1.2354455, 44.5674555], [-1.2295545, 44.568244], [-1.2259434, 44.5737694], [-1.2216355, 44.573448], [-1.2187434, 44.5761594], [-1.2155373, 44.5766257], [-1.2139255, 44.5824655], [-1.2094137, 44.5850309], [-1.2102594, 44.5901234], [-1.2075534, 44.5928294], [-1.1978166, 44.5932894], [-1.1948746, 44.589397], [-1.1919738, 44.589506], [-1.1906955, 44.5921055], [-1.18716, 44.59357], [-1.1836245, 44.5921055], [-1.1822232, 44.5882524], [-1.1734534, 44.5948194], [-1.1696266, 44.5948194], [-1.1649206, 44.5906234], [-1.1641854, 44.5824117], [-1.1507466, 44.5785594], [-1.1480406, 44.5758534], [-1.1480406, 44.5720266], [-1.1504861, 44.5669318], [-1.1454606, 44.5631934], [-1.1454606, 44.5593666], [-1.1475245, 44.5556645], [-1.1522388, 44.55351], [-1.1524006, 44.5504966], [-1.1551066, 44.5477906], [-1.1601669, 44.5486148], [-1.1596406, 44.5434466], [-1.1623466, 44.5407406], [-1.1671, 44.53986], [-1.1705352, 44.541087], [-1.1729896, 44.5393064], [-1.1712015, 44.5344068], [-1.1654345, 44.5335355], [-1.1643506, 44.5280866], [-1.1670566, 44.5253806], [-1.1708834, 44.5253806], [-1.1729587, 44.5271426], [-1.17664, 44.52546], [-1.1812594, 44.5285466], [-1.1808389, 44.5330028], [-1.1828749, 44.5338965], [-1.1871625, 44.5314124], [-1.1878473, 44.5268287], [-1.1804745, 44.5240955], [-1.1793906, 44.5186466], [-1.1820966, 44.5159406], [-1.1872608, 44.5163484], [-1.1923066, 44.5093006], [-1.197397, 44.5101449], [-1.1988545, 44.5066445], [-1.20583, 44.50312], [-1.2093655, 44.5045845], [-1.2154446, 44.5121091], [-1.2207855, 44.5132145], [-1.2221341, 44.5161675], [-1.22634, 44.51371], [-1.2316074, 44.517402], [-1.23603, 44.51461], [-1.2456, 44.51612]], [[-1.2382357, 44.5353817], [-1.2382349, 44.5353828], [-1.2382352, 44.5353841], [-1.2382357, 44.5353817]], [[-1.2376417, 44.5486335], [-1.2386514, 44.5487115], [-1.2386243, 44.5472246], [-1.2375467, 44.5484985], [-1.2376417, 44.5486335]]]}}, {"type": "Feature", "properties": {}, "geometry": {"type": "Polygon", "coordinates": [[[-1.1547366, 44.5827906], [-1.1585634, 44.5827906], [-1.1612694, 44.5854966], [-1.1612984, 44.5891777], [-1.16406, 44.59358], [-1.1609734, 44.5981994], [-1.1534, 44.59924], [-1.1487443, 44.5959711], [-1.1445539, 44.595677], [-1.13557, 44.59766], [-1.1309506, 44.5945734], [-1.12974, 44.5891], [-1.1328266, 44.5844806], [-1.1370836, 44.584768], [-1.1414766, 44.5820906], [-1.1453034, 44.5820906], [-1.1495955, 44.5842545], [-1.1515221, 44.5894904], [-1.1520306, 44.5854966], [-1.1547366, 44.5827906]]]}}, {"type": "Feature", "properties": {}, "geometry": {"type": "Polygon", "coordinates": [[[-1.1455645, 44.3028645], [-1.1491, 44.3014], [-1.1526355, 44.3028645], [-1.1541, 44.3064], [-1.1526355, 44.3099355], [-1.1491, 44.3114], [-1.1464196, 44.3105069], [-1.1435134, 44.3142194], [-1.1369334, 44.3166194], [-1.1314845, 44.3155355], [-1.13002, 44.312], [-1.1332645, 44.3046645], [-1.1368, 44.3032], [-1.1442804, 44.3054931], [-1.1455645, 44.3028645]]]}}, {"type": "Feature", "properties": {}, "geometry": {"type": "Polygon", "coordinates": [[[-1.13819, 44.77687], [-1.1429155, 44.7800345], [-1.1439994, 44.7854834], [-1.1416755, 44.7892455], [-1.1354053, 44.7907197], [-1.1325534, 44.7941594], [-1.1228266, 44.7929694], [-1.1205432, 44.7908959], [-1.1157366, 44.7903694], [-1.1130306, 44.7876634], [-1.1140506, 44.7807966], [-1.1197966, 44.7754006], [-1.13819, 44.77687]]]}}, {"type": "Feature", "properties": {}, "geometry": {"type": "Polygon", "coordinates": [[[-1.0244645, 45.1944645], [-1.028, 45.193], [-1.0356255, 45.1951145], [-1.03824, 45.20196], [-1.0367755, 45.2054955], [-1.03324, 45.20696], [-1.0288153, 45.2041648], [-1.02206, 45.20537], [-1.0185245, 45.2039055], [-1.0174406, 45.1984566], [-1.0201466, 45.1957506], [-1.0244645, 45.1944645]]]}}, {"type": "Feature", "properties": {}, "geometry": {"type": "Polygon", "coordinates": [[[-1.0269134, 44.3965806], [-1.0296194, 44.3992866], [-1.0296194, 44.4031134], [-1.0273055, 44.4075755], [-1.0218566, 44.4086594], [-1.0191506, 44.4059534], [-1.0192506, 44.3993366], [-1.0219566, 44.3966306], [-1.0269134, 44.3965806]]]}}, {"type": "Feature", "properties": {}, "geometry": {"type": "Polygon", "coordinates": [[[-1.03, 44.406], [-1.0335355, 44.4074645], [-1.0386194, 44.4130866], [-1.0385394, 44.4173234], [-1.0358334, 44.4200294], [-1.0320066, 44.4200294], [-1.0249206, 44.4131534], [-1.0260045, 44.4077045], [-1.03, 44.406]]]}}, {"type": "Feature", "properties": {}, "geometry": {"type": "Polygon", "coordinates": [[[-1.0839545, 44.7968545], [-1.08749, 44.79539], [-1.0963155, 44.7975445], [-1.09778, 44.80108], [-1.0954155, 44.8080455], [-1.09188, 44.80951], [-1.0830645, 44.8073555], [-1.0816, 44.80382], [-1.0839545, 44.7968545]]]}}, {"type": "Feature", "properties": {}, "geometry": {"type": "MultiPolygon", "coordinates": [[[[-1.1009984, 45.0035186], [-1.1009984, 45.0073454], [-1.0982924, 45.0100514], [-1.0944656, 45.0100514], [-1.0917596, 45.0073454], [-1.0917596, 45.0035186], [-1.0944656, 45.0008126], [-1.0982924, 45.0008126], [-1.1009984, 45.0035186]]], [[[-1.089309, 44.993526], [-1.0917654, 44.9965836], [-1.0917654, 45.0004104], [-1.0875644, 45.0043583], [-1.0836125, 45.0147965], [-1.080077, 45.016261], [-1.0754423, 45.015154], [-1.0761864, 45.0200944], [-1.0734804, 45.0228004], [-1.064178, 45.0222884], [-1.0623355, 45.0275295], [-1.05439, 45.029197], [-1.0496668, 45.0255884], [-1.0445645, 45.0244355], [-1.0432219, 45.0215128], [-1.0387866, 45.0219194], [-1.0360806, 45.0192134], [-1.0377645, 45.0089645], [-1.0424527, 45.0077293], [-1.0437185, 45.0051925], [-1.0506866, 45.0015806], [-1.0556223, 45.0023216], [-1.0596506, 44.9959106], [-1.0634774, 44.9959106], [-1.0680266, 44.999744], [-1.0697616, 44.9931576], [-1.0744016, 44.9887276], [-1.0862224, 44.9889066], [-1.089309, 44.993526]]]]}}, {"type": "Feature", "properties": {}, "geometry": {"type": "Polygon", "coordinates": [[[-1.0814834, 45.3046906], [-1.08695, 45.31282], [-1.0803834, 45.3229094], [-1.0748688, 45.3217272], [-1.07168, 45.32296], [-1.0681021, 45.3214321], [-1.05871, 45.32294], [-1.0540906, 45.3198534], [-1.0540906, 45.3160266], [-1.0567966, 45.3133206], [-1.0595319, 45.3131035], [-1.0601206, 45.3076866], [-1.0628266, 45.3049806], [-1.0666534, 45.3049806], [-1.0693751, 45.3077654], [-1.0725732, 45.3078307], [-1.0776566, 45.3046906], [-1.0814834, 45.3046906]]]}}, {"type": "Feature", "properties": {}, "geometry": {"type": "Polygon", "coordinates": [[[-0.74177, 44.96568], [-0.7464151, 44.9688959], [-0.7509234, 44.9684406], [-0.75401, 44.97306], [-0.7525455, 44.9765955], [-0.7448134, 44.9838594], [-0.7341466, 44.9832194], [-0.7314406, 44.9805134], [-0.7322398, 44.9751241], [-0.7276866, 44.9756094], [-0.7232006, 44.9714934], [-0.7232006, 44.9676666], [-0.7277466, 44.9643006], [-0.73454, 44.9633], [-0.739184, 44.96651], [-0.74177, 44.96568]]]}}, {"type": "Feature", "properties": {}, "geometry": {"type": "Polygon", "coordinates": [[[-0.9694866, 44.6204806], [-0.9733134, 44.6204806], [-0.9762582, 44.6243873], [-0.98025, 44.62224], [-0.9837855, 44.6237045], [-0.9848694, 44.6291534], [-0.9811555, 44.6360955], [-0.97762, 44.63756], [-0.9741581, 44.6361447], [-0.96949, 44.6368659], [-0.96536, 44.63922], [-0.9618245, 44.6377555], [-0.9582606, 44.6307934], [-0.9582606, 44.6269666], [-0.96288, 44.62388], [-0.9664627, 44.625415], [-0.9694866, 44.6204806]]]}}, {"type": "Feature", "properties": {}, "geometry": {"type": "Polygon", "coordinates": [[[-1.1064045, 44.7928245], [-1.1118534, 44.7917406], [-1.11494, 44.79636], [-1.1126594, 44.8048734], [-1.10804, 44.80796], [-1.1012266, 44.8068694], [-1.09814, 44.80225], [-1.0996045, 44.7987145], [-1.1036713, 44.7973557], [-1.1064045, 44.7928245]]]}}]}